PROGRESS-MS 32          
1 65586U 25204A   25324.86734766  .00014275  00000+0  26737-3 0  9992
2 65586  51.6324 250.7347 0003960 150.1460 209.9755 15.48935269   274
CYGNUS NG-23            
1 65616U 25208A   25324.86734766  .00014275  00000+0  26737-3 0  9990
2 65616  51.6324 250.7347 0003960 150.1460 209.9755 15.48935269   223
DRAGONFLY               
1 65729U 98067XH  25326.15547269  .00138289  00000+0  13514-2 0  9992
2 65729  51.6280 240.5876 0005972 164.4635 195.6544 15.65189622  9937
1998-067XJ              
1 65730U 98067XJ  25326.13700102  .00825946  00000+0  28191-2 0  9999
2 65730  51.6212 237.4278 0012340 164.9878 195.1495 15.87104201  9974
1998-067XK              
1 65731U 98067XK  25326.15247769  .00089396  00000+0  10171-2 0  9997
2 65731  51.6305 241.3231 0006042 139.1301 221.0147 15.61516254  9923
RSP-03                  
1 65732U 98067XL  25325.99512303  .00095050  00000+0  10108-2 0  9992
2 65732  51.6289 241.7695 0006845 140.8293 219.3197 15.63220415  9910
GHS-01                  
1 65733U 98067XM  25326.13378297  .00162997  00000+0  14989-2 0  9998
2 65733  51.6298 240.4465 0006509 162.1598 197.9628 15.66611774  9942
YOTSUBA-KULOVER         
1 65941U 98067XN  25324.51456217  .00057907  00000+0  81531-3 0  9990
2 65941  51.6311 251.3817 0002512 101.0931 259.0343 15.56073445  6390
BOTAN                   
1 65942U 98067XP  25324.81319232  .00081204  00000+0  10586-2 0  9997
2 65942  51.6307 249.6268 0004657 109.5809 250.5686 15.57989430  6448
E-KAGAKU-1              
1 65943U 98067XQ  25324.77109136  .00057209  00000+0  80517-3 0  9993
2 65943  51.6314 250.0966 0004078  90.9518 269.1941 15.56084359  6439
HTV-X1                  
1 66174U 25241A   25324.86734766  .00014275  00000+0  26737-3 0  9997
2 66174  51.6324 250.7347 0003960 150.1460 209.9755 15.48935269  1459
